#cV2023 12 23  1 20  0.00000000   14307 ORBIT ITRF  FIT CNES
## 2293 523200.00000000    60.00000000 60301 0.0555555555556
+    1   L40  0  0  0  0  0  0  0  0  0  0  0  0  0  0  0  0
+          0  0  0  0  0  0  0  0  0  0  0  0  0  0  0  0  0
+          0  0  0  0  0  0  0  0  0  0  0  0  0  0  0  0  0
+          0  0  0  0  0  0  0  0  0  0  0  0  0  0  0  0  0
+          0  0  0  0  0  0  0  0  0  0  0  0  0  0  0  0  0
++
++
++         0  0  0  0  0  0  0  0  0  0  0  0  0  0  0  0  0
++         0  0  0  0  0  0  0  0  0  0  0  0  0  0  0  0  0
++         0  0  0  0  0  0  0  0  0  0  0  0  0  0  0  0  0
%c L  cc TAI ccc cccc cccc cccc cccc ccccc ccccc ccccc ccccc
%c cc cc ccc ccc cccc cccc cccc cccc ccccc ccccc ccccc ccccc
%f  1.2500000  1.025000000  0.00000000000  0.000000000000000
%f  0.0000000  0.000000000  0.00000000000  0.000000000000000
%i    0    0    0    0      0      0      0      0         0
%i    0    0    0    0      0      0      0      0         0
/* CCCCCCCCCCCCCCCCCCCCCCCCCCCCCCCCCCCCCCCCCCCCCCCCCCCCCCCCC
/* CCCCCCCCCCCCCCCCCCCCCCCCCCCCCCCCCCCCCCCCCCCCCCCCCCCCCCCCC
/* CCCCCCCCCCCCCCCCCCCCCCCCCCCCCCCCCCCCCCCCCCCCCCCCCCCCCCCCC
/* CCCCCCCCCCCCCCCCCCCCCCCCCCCCCCCCCCCCCCCCCCCCCCCCCCCCCCCCC
*  2023 12 31 23 38  0.00000000
PL40  -3337.011544   6060.226756   3418.599296 999999.999999
VL40 -10390.214645 -38158.161552  57439.918149 999999.999999
*  2023 12 31 23 39  0.00000000
PL40  -3395.171810   5822.255218   3757.711067 999999.999999
VL40  -8995.933166 -41147.119156  55567.909820 999999.999999
*  2023 12 31 23 40  0.00000000
PL40  -3444.958812   5566.693247   4085.067164 999999.999999
VL40  -7599.683929 -44020.128121  53522.394675 999999.999999
*  2023 12 31 23 41  0.00000000
PL40  -3486.370692   5294.263385   4399.645705 999999.999999
VL40  -6204.769120 -46768.297495  51309.847712 999999.999999
*  2023 12 31 23 42  0.00000000
PL40  -3519.425149   5005.740419   4700.465226 999999.999999
VL40  -4814.404832 -49383.108909  48937.261957 999999.999999
*  2023 12 31 23 43  0.00000000
PL40  -3544.158904   4701.949061   4986.587714 999999.999999
VL40  -3431.714140 -51856.443009  46412.124669 999999.999999
*  2023 12 31 23 44  0.00000000
PL40  -3560.627120   4383.761478   5257.121501 999999.999999
VL40  -2059.720659 -54180.604591  43742.391885 999999.999999
*  2023 12 31 23 45  0.00000000
PL40  -3568.902790   4052.094677   5511.223994 999999.999999
VL40   -701.342663 -56348.345992  40936.461357 999999.999999
*  2023 12 31 23 46  0.00000000
PL40  -3569.076086   3707.907756   5748.104239 999999.999999
VL40    640.612094 -58352.888567  38003.144326 999999.999999
*  2023 12 31 23 47  0.00000000
PL40  -3561.253685   3352.199026   5967.025320 999999.999999
VL40   1963.450790 -60187.942381  34951.636416 999999.999999
*  2023 12 31 23 48  0.00000000
PL40  -3545.558066   2986.003026   6167.306573 999999.999999
VL40   3264.599272 -61847.724202  31791.487722 999999.999999
*  2023 12 31 23 49  0.00000000
PL40  -3522.126787   2610.387436   6348.325620 999999.999999
VL40   4541.605154 -63326.973677  28532.572226 999999.999999
*  2023 12 31 23 50  0.00000000
PL40  -3491.111754   2226.449890   6509.520222 999999.999999
VL40   5792.140206 -64620.967666  25185.056903 999999.999999
*  2023 12 31 23 51  0.00000000
PL40  -3452.678460   1835.314718   6650.389946 999999.999999
VL40   7014.001900 -65725.533196  21759.370756 999999.999999
*  2023 12 31 23 52  0.00000000
PL40  -3407.005238   1438.129608   6770.497636 999999.999999
VL40   8205.114327 -66637.059501  18266.173338 999999.999999
*  2023 12 31 23 53  0.00000000
PL40  -3354.282493   1036.062197   6869.470707 999999.999999
VL40   9363.528798 -67352.508620  14716.322307 999999.999999
*  2023 12 31 23 54  0.00000000
PL40  -3294.711940    630.296611   6947.002233 999999.999999
VL40  10487.423966 -67869.423890  11120.840473 999999.999999
*  2023 12 31 23 55  0.00000000
PL40  -3228.505841    222.029955   7002.851835 999999.999999
VL40  11575.105368 -68185.936569   7490.882955 999999.999999
*  2023 12 31 23 56  0.00000000
PL40  -3155.886248   -187.531231   7036.846382 999999.999999
VL40  12625.004526 -68300.770952   3837.704588 999999.999999
*  2023 12 31 23 57  0.00000000
PL40  -3077.084248   -597.174542   7048.880490 999999.999999
VL40  13635.677632 -68213.248162    172.627570 999999.999999
*  2023 12 31 23 58  0.00000000
PL40  -2992.339219  -1005.685296   7038.916830 999999.999999
VL40  14605.803787 -67923.288856  -3492.990816 999999.999999
*  2023 12 31 23 59  0.00000000
PL40  -2901.898104  -1411.850139   7006.986240 999999.999999
VL40  15534.182802 -67431.414836  -7147.790610 999999.999999
*  2024  1  1  0  1  0.00000000
PL40  -2704.948910  -2212.316959   6877.687776 999999.999999
VL40  17261.486932 -65847.017186 -14379.677594 999999.999999
*  2024  1  1  0  2  0.00000000
PL40  -2598.966152  -2604.231329   6780.720693 999999.999999
VL40  18058.592153 -64758.540464 -17934.327744 999999.999999
*  2024  1  1  0  3  0.00000000
PL40  -2488.336595  -2989.031750   6662.587104 999999.999999
VL40  18810.305343 -63476.235711 -21433.352912 999999.999999
*  2024  1  1  0  4  0.00000000
PL40  -2373.334550  -3365.565469   6523.653472 999999.999999
VL40  19515.991182 -62003.605766 -24865.878087 999999.999999
*  2024  1  1  0  5  0.00000000
PL40  -2254.237825  -3732.702491   6364.350938 999999.999999
VL40  20175.118688 -60344.730739 -28221.225125 999999.999999
*  2024  1  1  0  6  0.00000000
PL40  -2131.327110  -4089.339005   6185.174043 999999.999999
VL40  20787.257360 -58504.257576 -31488.944067 999999.999999
*  2024  1  1  0  7  0.00000000
PL40  -2004.885389  -4434.400755   5986.679267 999999.999999
VL40  21352.073079 -56487.388956 -34658.843720 999999.999999
*  2024  1  1  0  8  0.00000000
PL40  -1875.197368  -4766.846339   5769.483383 999999.999999
VL40  21869.324167 -54299.871394 -37721.022102 999999.999999
*  2024  1  1  0  9  0.00000000
PL40  -1742.548939  -5085.670434   5534.261632 999999.999999
VL40  22338.857808 -51947.982087 -40665.897024 999999.999999
*  2024  1  1  0 10  0.00000000
PL40  -1607.226649  -5389.906934   5281.745714 999999.999999
VL40  22760.606845 -49438.514026 -43484.236962 999999.999999
*  2024  1  1  0 11  0.00000000
PL40  -1469.517201  -5678.631995   5012.721585 999999.999999
VL40  23134.586776 -46778.758460 -46167.192070 999999.999999
*  2024  1  1  0 12  0.00000000
PL40  -1329.706961  -5950.966968   4728.027084 999999.999999
VL40  23460.892538 -43976.484389 -48706.324181 999999.999999
*  2024  1  1  0 13  0.00000000
PL40  -1188.081502  -6206.081190   4428.549369 999999.999999
VL40  23739.694881 -41039.915864 -51093.634942 999999.999999
*  2024  1  1  0 14  0.00000000
PL40  -1044.925149  -6443.194653   4115.222205 999999.999999
VL40  23971.236443 -37977.708049 -53321.592044 999999.999999
*  2024  1  1  0 15  0.00000000
PL40   -900.520569  -6661.580506   3789.023089 999999.999999
VL40  24155.827909 -34798.922495 -55383.154146 999999.999999
*  2024  1  1  0 16  0.00000000
PL40   -755.148368  -6860.567427   3450.970233 999999.999999
VL40  24293.844638 -31513.001060 -57271.795071 999999.999999
*  2024  1  1  0 17  0.00000000
PL40   -609.086713  -7039.541814   3102.119403 999999.999999
VL40  24385.723489 -28129.737624 -58981.526831 999999.999999
*  2024  1  1  0 18  0.00000000
PL40   -462.610975  -7197.949807   2743.560626 999999.999999
VL40  24431.959330 -24659.248038 -60506.920564 999999.999999
*  2024  1  1  0 19  0.00000000
PL40   -315.993392  -7335.299135   2376.414774 999999.999999
VL40  24433.101287 -21111.939442 -61843.125564 999999.999999
*  2024  1  1  0 20  0.00000000
PL40   -169.502751  -7451.160761   2001.830046 999999.999999
VL40  24389.749295 -17498.478610 -62985.887364 999999.999999
*  2024  1  1  0 21  0.00000000
PL40    -23.404096  -7545.170346   1620.978337 999999.999999
VL40  24302.550950 -13829.758106 -63931.564408 999999.999999
*  2024  1  1  0 22  0.00000000
PL40    122.041550  -7617.029494   1235.051514 999999.999999
VL40  24172.198359 -10116.860543 -64677.142166 999999.999999
*  2024  1  1  0 23  0.00000000
PL40    266.577440  -7666.506783    845.257624 999999.999999
VL40  23999.424929  -6371.021897 -65220.244525 999999.999999
*  2024  1  1  0 24  0.00000000
PL40    409.951348  -7693.438573    452.817032 999999.999999
VL40  23785.002164  -2603.594162 -65559.142714 999999.999999
*  2024  1  1  0 25  0.00000000
PL40    551.915779  -7697.729592     58.958514 999999.999999
VL40  23529.736471   1173.992645 -65692.761677 999999.999999
*  2024  1  1  0 26  0.00000000
PL40    692.228174  -7679.353283   -335.084671 999999.999999
VL40  23234.466005   4950.268739 -65620.683720 999999.999999
*  2024  1  1  0 27  0.00000000
PL40    830.651093  -7638.351933   -728.078734 999999.999999
VL40  22900.057665   8713.762746 -65343.149589 999999.999999
*  2024  1  1  0 28  0.00000000
PL40    966.952375  -7574.836569  -1118.793305 999999.999999
VL40  22527.404331  12453.039758 -64861.057018 999999.999999
*  2024  1  1  0 29  0.00000000
PL40   1100.905286  -7488.986619  -1506.005360 999999.999999
VL40  22117.422155  16156.738979 -64175.956778 999999.999999
*  2024  1  1  0 30  0.00000000
PL40   1232.288655  -7381.049366  -1888.503124 999999.999999
VL40  21671.047865  19813.610655 -63290.046646 999999.999999
*  2024  1  1  0 31  0.00000000
PL40   1360.886985  -7251.339163  -2265.089932 999999.999999
VL40  21189.236355  23412.552582 -62206.163592 999999.999999
*  2024  1  1  0 32  0.00000000
PL40   1486.490559  -7100.236445  -2634.588033 999999.999999
VL40  20672.958739  26942.646603 -60927.773754 999999.999999
*  2024  1  1  0 33  0.00000000
PL40   1608.895529  -6928.186513  -2995.842328 999999.999999
VL40  20123.200549  30393.194738 -59458.959517 999999.999999
*  2024  1  1  0 34  0.00000000
PL40   1727.904000  -6735.698106  -3347.724025 999999.999999
VL40  19540.959747  33753.753816 -57804.403887 999999.999999
EOF
